BEIDOU-3S IGSO-1S       
1 40549U 15019A   26182.78607587 -.00000144  00000+0  00000+0 0  9993
2 40549  49.1677 295.2866 0039278 192.1614 165.4543  1.00248803 41211
NAVSTAR 74 (USA 262)    
1 40730U 15033A   26182.68037741 -.00000005  00000+0  00000+0 0  9995
2 40730  53.9713 266.4887 0115182  30.2513 330.4805  2.00555660 80287
BEIDOU-3S M2S           
1 40748U 15037A   26182.28405675 -.00000066  00000+0  00000+0 0  9996
2 40748  54.8572 301.5610 0009020 257.9335 101.9782  1.86232501 74385
BEIDOU-3S M1S           
1 40749U 15037B   26182.48973792 -.00000065  00000+0  00000+0 0  9998
2 40749  54.8538 301.5415 0003101  62.8434 297.2018  1.86255000 74399
GSAT0206 (GALILEO 10)   
1 40890U 15045B   26182.53529488  .00000074  00000+0  00000+0 0  9998
2 40890  54.9416 221.2080 0001620 340.3144  19.7690  1.70473858 67283
BEIDOU-3S IGSO-2S       
1 40938U 15053A   26181.70325568 -.00000093  00000+0  00000+0 0  9993
2 40938  49.1997 258.6211 0065678 193.2539 174.4507  1.00257046 39492
NAVSTAR 75 (USA 265)    
1 41019U 15062A   26180.74153782 -.00000066  00000+0  00000+0 0  9994
2 41019  56.9678  30.3277 0112244 230.9838 128.0695  2.00567192 78083
GSAT-15                 
1 41028U 15065A   26183.10206043 -.00000247  00000+0  00000+0 0  9990
2 41028   0.0427 253.7187 0004445 187.1575 329.5056  1.00270035 38946
GSAT0209 (GALILEO 12)   
1 41174U 15079A   26179.18392164 -.00000033  00000+0  00000+0 0  9993
2 41174  55.8335 100.9603 0005085 347.1897  12.7761  1.70473803 64966
GSAT0208 (GALILEO 11)   
1 41175U 15079B   26182.92381336 -.00000013  00000+0  00000+0 0  9997
2 41175  55.8336 100.8547 0004613 354.4374   5.5610  1.70473736 65443
IRNSS-1E                
1 41241U 16003A   26180.82733131 -.00000310  00000+0  00000+0 0  9990
2 41241  33.2608  59.5670 0019200 178.7998  89.1855  1.00272765 38208
NAVSTAR 76 (USA 266)    
1 41328U 16007A   26180.83338311 -.00000037  00000+0  00000+0 0  9998
2 41328  55.5312  88.9584 0095643 247.1499 111.8568  2.00551193 76094
COSMOS 2514 [GLONASS-M] 
1 41330U 16008A   26182.83223629 -.00000051  00000+0  00000+0 0  9995
2 41330  65.0121 312.5042 0011840 199.6375 160.3188  2.13102696 80936
BEIDOU-2 IGSO-6         
1 41434U 16021A   26177.11016981 -.00000145  00000+0  00000+0 0  9995
2 41434  60.2385  37.9495 0057558 231.0163 137.2672  1.00258926 37578
IRNSS-1G                
1 41469U 16027A   26182.83478140 -.00000327  00000+0  00000+0 0  9995
2 41469   5.2308  97.1365 0005800   6.3049 246.4676  1.00280117 37320
GSAT0211 (GALILEO 14)   
1 41549U 16030A   26178.94152421  .00000069  00000+0  00000+0 0  9998
2 41549  55.0927 221.3989 0003116 320.4926  39.5816  1.70474008 62858
GSAT0210 (GALILEO 13)   
1 41550U 16030B   26183.30484962  .00000074  00000+0  00000+0 0  9990
2 41550  55.0898 221.2769 0008314 256.8787 103.1145  1.70473959 62929
BEIDOU-2 G7             
1 41586U 16037A   26183.03417322 -.00000344  00000+0  00000+0 0  9993
2 41586   1.7553  69.4328 0006775   3.5111 329.9821  1.00269814  7030
EUTELSAT 117 WEST B     
1 41589U 16038B   26183.01560419 -.00000001  00000+0  00000+0 0  9991
2 41589   0.0107 154.0076 0000355 118.1646 256.4974  1.00272712 36817
GSAT0207 (GALILEO 15)   
1 41859U 16069A   26177.71738502 -.00000038  00000+0  00000+0 0  9995
2 41859  55.5042 100.8225 0005006 333.0982  26.8500  1.70473700 59562
GSAT0212 (GALILEO 16)   
1 41860U 16069B   26179.33057380 -.00000033  00000+0  00000+0 0  9990
2 41860  55.5028 100.7730 0004434   6.1382 353.8467  1.70473934 59849
GSAT0213 (GALILEO 17)   
1 41861U 16069C   26179.11118849 -.00000034  00000+0  00000+0 0  9996
2 41861  55.5047 100.7870 0004537 315.9585  43.9839  1.70474290 59707
GSAT0214 (GALILEO 18)   
1 41862U 16069D   26182.19038912 -.00000017  00000+0  00000+0 0  9992
2 41862  55.5050 100.6945 0003556 328.0660  31.9108  1.70473880 59882
SES-15                  
1 42709U 17026A   26183.18656149  .00000071  00000+0  00000+0 0  9994
2 42709   0.0232 330.7575 0000635 118.5035 128.9775  1.00269051  7581
QZS-2 (MICHIBIKI-2)     
1 42738U 17028A   26182.47193832 -.00000110  00000+0  00000+0 0  9999
2 42738  39.4058 242.9433 0758746 269.4314  79.2051  1.00280245  7764
QZS-3 (MICHIBIKI-3)     
1 42917U 17048A   26183.25128054 -.00000338  00000+0  00000+0 0  9993
2 42917   0.0758 135.6899 0002239 323.5627  38.5270  1.00269120 32416
COSMOS 2522 [GLONASS-M] 
1 42939U 17055A   26182.66994916  .00000079  00000+0  00000+0 0  9998
2 42939  64.0801 191.3912 0010879 240.6599 119.2646  2.13102110 68288
QZS-4 (MICHIBIKI-4)     
1 42965U 17062A   26181.32690646 -.00000331  00000+0  00000+0 0  9992
2 42965  40.1009 343.3188 0746709 268.3129 282.6055  1.00295775 31936
BEIDOU-3 M1             
1 43001U 17069A   26182.63087514 -.00000040  00000+0  00000+0 0  9997
2 43001  56.7042  62.6089 0009780 326.4451  33.5606  1.86231668 58876
BEIDOU-3 M2             
1 43002U 17069B   26182.56966419 -.00000040  00000+0  00000+0 0  9990
2 43002  56.7036  62.6466 0008743 353.8401   6.2165  1.86230991 58860
GSAT0215 (GALILEO 19)   
1 43055U 17079A   26179.16063341  .00000069  00000+0  00000+0 0  9993
2 43055  55.0711 221.2046 0003100 263.9664  96.0952  1.70474711 53174
